     3.04           N: GNSS NAV DATA    J: QZSS             RINEX VERSION / TYPE
TPP 5.1.1                               20240330 235934 UTC PGM / RUN BY / DATE 
                                                            COMMENT             
                                                            COMMENT             
                                                            COMMENT             
QZSA    .3353E-07   .7451E-08  -.1788E-06   .0000E+00       IONOSPHERIC CORR    
QZSB    .1372E+06   .0000E+00  -.3277E+06   .2621E+06       IONOSPHERIC CORR    
QZUT   .9313225746E-09  .888178420E-15 233472 2308          TIME SYSTEM CORR    
    18  2307     7                                          LEAP SECONDS        
                                                            END OF HEADER       
J04 2024 03 31 14 00 00  .505563803017E-04 -.113686837722E-12  .000000000000E+00
      .530000000000E+02 -.236500000000E+03  .260510851323E-08  .300173342666E+01
     -.726245343685E-05  .752254262334E-01  .905990600586E-05  .649311195564E+04
      .504000000000E+05  .637024641037E-06 -.169456113320E+01  .856816768646E-07
      .623979007185E+00 -.176093750000E+03 -.156960246861E+01 -.236331272718E-08
      .793247327650E-09  .200000000000E+01  .230800000000E+04  .000000000000E+00
      .280000000000E+01  .100000000000E+01 -.279396772385E-08  .821000000000E+03
      .468060000000E+05  .000000000000E+00  .000000000000E+00  .000000000000E+00
J02 2024 03 31 14 00 00 -.351574271917E-05 -.454747350886E-12  .000000000000E+00
      .530000000000E+02  .264156250000E+03  .229366696901E-08  .244280351806E+00
      .975653529167E-05  .744181738700E-01  .139586627483E-04  .649375804901E+04
      .504000000000E+05 -.575557351112E-06  .115266399589E+01 -.165775418282E-06
      .710232004677E+00 -.244500000000E+03 -.156060490214E+01 -.273582824394E-08
     -.567880797372E-09  .000000000000E+00  .230800000000E+04  .000000000000E+00
      .280000000000E+01  .100000000000E+01  .186264514923E-08  .821000000000E+03
      .468060000000E+05  .000000000000E+00  .000000000000E+00  .000000000000E+00
J03 2024 03 31 14 00 00 -.130850821733E-06  .113686837722E-12  .000000000000E+00
      .530000000000E+02 -.122031250000E+03  .215616124134E-08 -.148165121048E+01
     -.307708978653E-05  .744507727213E-01 -.864453613758E-05  .649336015701E+04
      .504000000000E+05  .311061739922E-06  .287987739772E+01  .581145286560E-06
      .707893796378E+00  .395781250000E+03 -.157029035317E+01 -.255974948098E-08
     -.112147528538E-09  .000000000000E+00  .230800000000E+04  .000000000000E+00
      .280000000000E+01  .100000000000E+01  .931322574615E-09  .821000000000E+03
      .468060000000E+05  .000000000000E+00  .000000000000E+00  .000000000000E+00
J04 2024 03 31 15 00 00  .505559146404E-04 -.113686837722E-12  .000000000000E+00
      .570000000000E+02 -.235718750000E+03  .243653006269E-08 -.301889363859E+01
     -.724941492081E-05  .752194126835E-01  .108312815428E-04  .649312473488E+04
      .540000000000E+05  .596046447754E-06 -.169456985805E+01  .134110450745E-06
      .623981846709E+00 -.251187500000E+03 -.156960177519E+01 -.235438378382E-08
      .807890794752E-09  .200000000000E+01  .230800000000E+04  .000000000000E+00
      .280000000000E+01  .100000000000E+01 -.279396772385E-08  .825000000000E+03
      .504060000000E+05  .000000000000E+00  .000000000000E+00  .000000000000E+00
J02 2024 03 31 15 00 00 -.351713970304E-05 -.454747350886E-12  .000000000000E+00
      .570000000000E+02  .216437500000E+03  .221902100256E-08  .506723662503E+00
      .848062336445E-05  .744241499342E-01  .150445848703E-04  .649377582741E+04
      .540000000000E+05 -.245869159698E-06  .115265628924E+01 -.264495611191E-06
      .710229043730E+00 -.282781250000E+03 -.156057073277E+01 -.284940440342E-08
     -.743245244862E-09  .000000000000E+00  .230800000000E+04  .000000000000E+00
      .280000000000E+01  .100000000000E+01  .186264514923E-08  .825000000000E+03
      .504060000000E+05  .000000000000E+00  .000000000000E+00  .000000000000E+00
J03 2024 03 31 15 00 00 -.130850821733E-06  .113686837722E-12  .000000000000E+00
      .570000000000E+02 -.910625000000E+02  .271761319950E-08 -.121906887283E+01
     -.195764005184E-05  .744517854182E-01 -.956095755100E-05  .649337010384E+04
      .540000000000E+05 -.953674316406E-06  .287986568706E+01  .247731804848E-06
      .707887009901E+00  .435937500000E+03 -.157034349074E+01 -.345407244741E-08
     -.189293599124E-10  .000000000000E+00  .230800000000E+04  .000000000000E+00
      .280000000000E+01  .100000000000E+01  .931322574615E-09  .825000000000E+03
      .504060000000E+05  .000000000000E+00  .000000000000E+00  .000000000000E+00
J04 2024 03 31 16 00 00  .505559146404E-04 -.113686837722E-12  .000000000000E+00
      .610000000000E+02 -.258062500000E+03  .251224750234E-08 -.275632334368E+01
     -.788457691669E-05  .752144170692E-01  .122301280499E-04  .649313597107E+04
      .576000000000E+05  .143237411976E-05 -.169457256445E+01 -.389292836189E-06
      .623983915275E+00 -.304937500000E+03 -.156962025623E+01 -.256010663872E-08
      .492163357722E-09  .200000000000E+01  .230800000000E+04  .000000000000E+00
      .280000000000E+01  .100000000000E+01 -.279396772385E-08  .829000000000E+03
      .540060000000E+05  .000000000000E+00  .000000000000E+00  .000000000000E+00
J02 2024 03 31 16 00 00 -.351807102561E-05 -.454747350886E-12  .000000000000E+00
      .610000000000E+02  .226750000000E+03  .251867634155E-08  .769216926001E+00
      .880286097527E-05  .744231457356E-01  .152830034494E-04  .649377156449E+04
      .576000000000E+05 -.614672899246E-07  .115264951886E+01  .417232513428E-06
      .710224183917E+00 -.289187500000E+03 -.156058860377E+01 -.324192075330E-08
     -.942539260543E-09  .000000000000E+00  .230800000000E+04  .000000000000E+00
      .280000000000E+01  .100000000000E+01  .186264514923E-08  .829000000000E+03
      .540060000000E+05  .000000000000E+00  .000000000000E+00  .000000000000E+00
J03 2024 03 31 16 00 00 -.130850821733E-06  .113686837722E-12  .000000000000E+00
      .610000000000E+02 -.145593750000E+03  .223937899341E-08 -.956629649522E+00
     -.368058681488E-05  .744492937810E-01 -.833347439766E-05  .649335222626E+04
      .576000000000E+05 -.122934579849E-06  .287985898397E+01  .119581818581E-05
      .707892737225E+00  .381187500000E+03 -.157025555474E+01 -.255903516551E-08
     -.235724104569E-09  .000000000000E+00  .230800000000E+04  .000000000000E+00
      .280000000000E+01  .100000000000E+01  .931322574615E-09  .829000000000E+03
      .540060000000E+05  .000000000000E+00  .000000000000E+00  .000000000000E+00
J04 2024 03 31 17 00 00  .505554489791E-04 -.113686837722E-12  .000000000000E+00
      .650000000000E+02 -.266250000000E+03  .273118519340E-08 -.249376051258E+01
     -.829808413982E-05  .752130629262E-01  .125356018543E-04  .649313943672E+04
      .612000000000E+05  .190734863281E-05 -.169457952501E+01  .385567545891E-06
      .623985752700E+00 -.313656250000E+03 -.156962893426E+01 -.280761694852E-08
      .451447376024E-09  .200000000000E+01  .230800000000E+04  .000000000000E+00
      .280000000000E+01  .100000000000E+01 -.279396772385E-08  .833000000000E+03
      .576060000000E+05  .000000000000E+00  .000000000000E+00  .000000000000E+00
J02 2024 03 31 17 00 00 -.351946800947E-05 -.454747350886E-12  .000000000000E+00
      .650000000000E+02  .302843750000E+03  .231509643306E-08  .103180169064E+01
      .109653919935E-04  .744188093813E-01  .164061784744E-04  .649374870110E+04
      .612000000000E+05 -.372529029846E-06  .115263464976E+01 -.543892383575E-06
      .710225320604E+00 -.339718750000E+03 -.156069122748E+01 -.265368196508E-08
     -.629669085388E-09  .000000000000E+00  .230800000000E+04  .000000000000E+00
      .280000000000E+01  .100000000000E+01  .186264514923E-08  .833000000000E+03
      .576060000000E+05  .000000000000E+00  .000000000000E+00  .000000000000E+00
J03 2024 03 31 17 00 00 -.130850821733E-06  .113686837722E-12  .000000000000E+00
      .650000000000E+02 -.969687500000E+02  .188686430976E-08 -.694035114057E+00
     -.269152224064E-05  .744526846101E-01 -.901333987713E-05  .649336831856E+04
      .612000000000E+05 -.135041773319E-05  .287985246960E+01  .149011611938E-05
      .707893413093E+00  .409968750000E+03 -.157032469078E+01 -.233009705789E-08
     -.577166898461E-09  .000000000000E+00  .230800000000E+04  .000000000000E+00
      .280000000000E+01  .100000000000E+01  .931322574615E-09  .833000000000E+03
      .576060000000E+05  .000000000000E+00  .000000000000E+00  .000000000000E+00
J04 2024 03 31 18 00 00  .505549833179E-04 -.113686837722E-12  .000000000000E+00
      .690000000000E+02 -.226468750000E+03  .215008955986E-08 -.223123919177E+01
     -.760331749916E-05  .752164839068E-01  .128094106913E-04  .649312901306E+04
      .648000000000E+05 -.152736902237E-06 -.169460042133E+01 -.158324837685E-06
      .623993377429E+00 -.310656250000E+03 -.156958288014E+01 -.197543942784E-08
      .108147361915E-08  .200000000000E+01  .230800000000E+04  .000000000000E+00
      .280000000000E+01  .100000000000E+01 -.279396772385E-08  .837000000000E+03
      .612060000000E+05  .000000000000E+00  .000000000000E+00  .000000000000E+00
J02 2024 03 31 18 00 00 -.352133065462E-05 -.454747350886E-12  .000000000000E+00
      .690000000000E+02  .362750000000E+03  .138505769321E-08  .129442706295E+01
      .130608677864E-04  .744164021453E-01  .186301767826E-04  .649372149277E+04
      .648000000000E+05  .198185443878E-05  .115262239343E+01 -.129640102386E-05
      .710235223096E+00 -.442625000000E+03 -.156083369375E+01 -.978255033963E-09
     -.435018120251E-09  .000000000000E+00  .230800000000E+04  .000000000000E+00
      .280000000000E+01  .100000000000E+01  .186264514923E-08  .837000000000E+03
      .612060000000E+05  .000000000000E+00  .000000000000E+00  .000000000000E+00
